ONEWEB-0492             
1 54114U 22138B   25185.91892938  .00000078  00000+0  16223-3 0  9992
2 54114  87.9215  14.0073 0002051  86.8633 273.2734 13.19724467131036
ONEWEB-0495             
1 54115U 22138C   25185.89683186  .00000058  00000+0  11335-3 0  9990
2 54115  87.9214  14.0230 0002464  99.2326 260.9086 13.19726337131015
ONEWEB-0497             
1 54116U 22138D   25185.90946950  .00000068  00000+0  13665-3 0  9993
2 54116  87.9210  13.9921 0001949  90.9528 269.1828 13.19725731131007
ONEWEB-0499             
1 54117U 22138E   25185.81627017 -.00000017  00000+0 -75102-4 0  9995
2 54117  87.9213  14.0285 0001816 102.2196 257.9140 13.19724084131009
ONEWEB-0500             
1 54118U 22138F   25185.89524371  .00000022  00000+0  22134-4 0  9994
2 54118  87.9211  13.9972 0001863  89.0605 271.0741 13.19724836131029
ONEWEB-0501             
1 54119U 22138G   25185.92524833  .00000080  00000+0  16859-3 0  9992
2 54119  87.9210  13.9847 0002179  97.7432 262.3948 13.19724108131007
ONEWEB-0502             
1 54120U 22138H   25185.91103300  .00000053  00000+0  99483-4 0  9990
2 54120  87.9209  13.9716 0001992  97.8721 262.2638 13.19724132131020
ONEWEB-0503             
1 54121U 22138J   25185.89998131  .00000105  00000+0  22926-3 0  9997
2 54121  87.9208  13.9785 0001615  97.5428 262.5888 13.19724727131018
